NORAD_CAT_ID,OBJECT_NAME,OBJECT_TYPE,EPOCH,MEAN_MOTION,ECCENTRICITY,INCLINATION,RA_OF_ASC_NODE,ARG_OF_PERICENTER,MEAN_ANOMALY,BSTAR,MEAN_MOTION_DOT,MEAN_MOTION_DDOT,TLE_LINE0,TLE_LINE1,TLE_LINE2,SEMIMAJOR_AXIS,PERIOD,APOGEE,PERIGEE,DECAYED
55284.0,STARLINK-5337,PAYLOAD,2024-02-23 14:31:21,14.98340663,0.0003072,69.9993,122.9102,267.3319,92.7489,8.517e-05,9.24e-06,0.0,0 STARLINK-5337,1 55284U 23010R   24054.60510729  .00000924  00000-0  85170-4 0  9995,2 55284  69.9993 122.9102 0003072 267.3319  92.7489 14.98340663 61179,6950.16,96.106,574.16,569.89,0.0
55284.0,STARLINK-5337,PAYLOAD,2024-02-24 03:20:26,14.98322846,0.0003092,69.9993,121.5639,267.636,92.4445,0.00031799,3.703e-05,0.0,0 STARLINK-5337,1 55284U 23010R   24055.13919118  .00003703  00000-0  31799-3 0  9994,2 55284  69.9993 121.5639 0003092 267.6360  92.4445 14.98322846 60957,6950.215,96.107,574.229,569.931,0.0
55284.0,STARLINK-5337,PAYLOAD,2024-02-24 12:57:14,14.98331977,0.0002934,69.9998,120.5544,264.5826,95.4998,0.00021193,2.437e-05,0.0,0 STARLINK-5337,1 55284U 23010R   24055.53975003  .00002437  00000-0  21193-3 0  9993,2 55284  69.9998 120.5544 0002934 264.5826  95.4998 14.98331977 61315,6950.187,96.107,574.091,570.013,0.0
55284.0,STARLINK-5337,PAYLOAD,2024-02-24 20:57:54,14.98335938,0.0003164,69.9991,119.7116,270.2224,89.8572,0.00014257,1.609e-05,0.0,0 STARLINK-5337,1 55284U 23010R   24055.87354846  .00001609  00000-0  14257-3 0  9999,2 55284  69.9991 119.7116 0003164 270.2224  89.8572 14.98335938 61366,6950.175,96.107,574.239,569.84,0.0
55284.0,STARLINK-5337,PAYLOAD,2024-02-25 04:58:35,14.98322161,0.0002334,69.9997,118.8709,257.1703,102.9195,0.00031338,3.647e-05,0.0,0 STARLINK-5337,1 55284U 23010R   24056.20735158  .00003647  00000-0  31338-3 0  9999,2 55284  69.9997 118.8709 0002334 257.1703 102.9195 14.98322161 61119,6950.217,96.108,573.704,570.46,0.0
55284.0,STARLINK-5337,PAYLOAD,2024-02-25 14:35:23,14.98316099,0.0002324,69.9999,117.8611,258.9616,101.1282,0.00048302,5.673e-05,0.0,0 STARLINK-5337,1 55284U 23010R   24056.60791331  .00005673  00000-0  48302-3 0  9998,2 55284  69.9999 117.8611 0002324 258.9616 101.1282 14.98316099 61473,6950.236,96.108,573.716,570.486,0.0
55284.0,STARLINK-5337,PAYLOAD,2024-02-25 20:59:55,14.98345727,0.0002953,70.0003,117.1875,268.028,92.0541,-0.00012542,-1.59e-05,0.0,0 STARLINK-5337,1 55284U 23010R   24056.87494371 -.00001590  00000-0 -12542-3 0  9994,2 55284  70.0003 117.1875 0002953 268.0280  92.0541 14.98345727 61515,6950.144,96.106,574.062,569.957,0.0
55284.0,STARLINK-5337,PAYLOAD,2024-02-26 11:25:07,14.98334187,0.0002772,70.0,115.673,265.6441,94.4402,3.5338e-06,-5.1e-07,0.0,0 STARLINK-5337,1 55284U 23010R   24057.47578671 -.00000051  00000-0  35338-5 0  9997,2 55284  70.0000 115.6730 0002772 265.6441  94.4402 14.98334187 61303,6950.18,96.107,573.972,570.118,0.0
55284.0,STARLINK-5337,PAYLOAD,2024-02-26 13:01:15,14.98333733,0.0002756,70.0,115.5047,266.2811,93.8033,2.1344e-05,1.62e-06,0.0,0 STARLINK-5337,1 55284U 23010R   24057.54254629  .00000162  00000-0  21344-4 0  9992,2 55284  70.0000 115.5047 0002756 266.2811  93.8033 14.98333733 61616,6950.181,96.107,573.962,570.131,0.0
55284.0,STARLINK-5337,PAYLOAD,2024-02-27 11:27:09,14.9832702,0.0002832,69.9998,113.1484,264.8162,95.2674,-4.2591e-05,-6.01e-06,0.0,0 STARLINK-5337,1 55284U 23010R   24058.47719106 -.00000601  00000-0 -42591-4 0  9998,2 55284  69.9998 113.1484 0002832 264.8162  95.2674 14.98327020 61457,6950.202,96.107,574.035,570.099,0.0
55284.0,STARLINK-5337,PAYLOAD,2024-02-27 13:03:17,14.98323677,0.0002751,70.0,112.98,265.0217,95.0628,1.0922e-06,-8e-07,0.0,0 STARLINK-5337,1 55284U 23010R   24058.54395237 -.00000080  00000-0  10922-5 0  9995,2 55284  70.0000 112.9800 0002751 265.0217  95.0628 14.98323677 61762,6950.212,96.107,573.989,570.165,0.0
55284.0,STARLINK-5337,PAYLOAD,2024-02-28 13:05:17,14.98332481,0.0002944,69.9992,110.4542,267.6618,92.4204,4.3537e-05,4.27e-06,0.0,0 STARLINK-5337,1 55284U 23010R   24059.54534521  .00000427  00000-0  43537-4 0  9998,2 55284  69.9992 110.4542 0002944 267.6618  92.4204 14.98332481 61610,6950.185,96.107,574.096,570.004,0.0
55284.0,STARLINK-5337,PAYLOAD,2024-02-28 21:05:58,14.98328661,0.000303,69.9988,109.6117,268.6519,91.4292,5.1605e-05,5.23e-06,0.0,0 STARLINK-5337,1 55284U 23010R   24059.87914709  .00000523  00000-0  51605-4 0  9996,2 55284  69.9988 109.6117 0003030 268.6519  91.4292 14.98328661 61960,6950.197,96.107,574.168,569.956,0.0
55284.0,STARLINK-5337,PAYLOAD,2024-02-29 13:07:18,14.98329155,0.0003054,69.9987,107.929,269.7306,90.3503,7.0101e-05,7.43e-06,0.0,0 STARLINK-5337,1 55284U 23010R   24060.54674736  .00000743  00000-0  70101-4 0  9991,2 55284  69.9987 107.9290 0003054 269.7306  90.3503 14.98329155 61764,6950.196,96.107,574.183,569.938,0.0
55284.0,STARLINK-5337,PAYLOAD,2024-03-01 13:09:19,14.98336105,0.0003011,69.9987,105.404,270.2008,89.8806,4.8951e-05,4.91e-06,0.0,0 STARLINK-5337,1 55284U 23010R   24061.54814281  .00000491  00000-0  48951-4 0  9991,2 55284  69.9987 105.4040 0003011 270.2008  89.8806 14.98336105 62212,6950.174,96.107,574.132,569.946,0.0
55284.0,STARLINK-5337,PAYLOAD,2024-03-01 19:33:51,14.98332407,0.000297,69.9988,104.7306,270.6765,89.4054,4.0708e-05,3.93e-06,0.0,0 STARLINK-5337,1 55284U 23010R   24061.81518479  .00000393  00000-0  40708-4 0  9994,2 55284  69.9988 104.7306 0002970 270.6765  89.4054 14.98332407 61959,6950.185,96.107,574.115,569.986,0.0
55284.0,STARLINK-5337,PAYLOAD,2024-03-02 11:35:12,14.98333394,0.0002897,69.9989,103.0476,270.5867,89.496,7.2503e-05,7.72e-06,0.0,0 STARLINK-5337,1 55284U 23010R   24062.48278274  .00000772  00000-0  72503-4 0  9993,2 55284  69.9989 103.0476 0002897 270.5867  89.4960 14.98333394 62357,6950.182,96.107,574.061,570.034,0.0
55284.0,STARLINK-5337,PAYLOAD,2024-03-03 05:12:41,14.98330358,0.0002853,69.9988,101.1962,268.4612,91.622,-1.9548e-05,-3.26e-06,0.0,0 STARLINK-5337,1 55284U 23010R   24063.21714649 -.00000326  00000-0 -19548-4 0  9993,2 55284  69.9988 101.1962 0002853 268.4612  91.6220 14.98330358 62161,6950.192,96.107,574.04,570.074,0.0
55284.0,STARLINK-5337,PAYLOAD,2024-03-03 11:37:13,14.9832938,0.0002865,69.9989,100.5227,269.4514,90.6317,-2.9864e-05,-4.49e-06,0.0,0 STARLINK-5337,1 55284U 23010R   24063.48418739 -.00000449  00000-0 -29864-4 0  9991,2 55284  69.9989 100.5227 0002865 269.4514  90.6317 14.98329380 62501,6950.195,96.107,574.051,570.069,0.0
55284.0,STARLINK-5337,PAYLOAD,2024-03-04 05:14:41,14.98334275,0.000304,69.9987,98.6705,271.4744,88.6066,5.6366e-05,5.8e-06,0.0,0 STARLINK-5337,1 55284U 23010R   24064.21854067  .00000580  00000-0  56366-4 0  9992,2 55284  69.9987  98.6705 0003040 271.4744  88.6066 14.98334275 62317,6950.18,96.107,574.158,569.932,0.0
55284.0,STARLINK-5337,PAYLOAD,2024-03-04 11:39:13,14.98340118,0.0002809,69.9986,97.997,264.74,95.3438,0.0001023,1.128e-05,0.0,0 STARLINK-5337,1 55284U 23010R   24064.48557458  .00001128  00000-0  10230-3 0  9993,2 55284  69.9986  97.9970 0002809 264.7400  95.3438 14.98340118 62353,6950.162,96.106,573.979,570.074,0.0
55284.0,STARLINK-5337,PAYLOAD,2024-03-04 19:39:54,14.98328603,0.0002366,70.0,97.1545,265.616,94.4729,2.0732e-05,1.54e-06,0.0,0 STARLINK-5337,1 55284U 23010R   24064.81938446  .00000154  00000-0  20732-4 0  9997,2 55284  70.0000  97.1545 0002366 265.6160  94.4729 14.98328603 62408,6950.197,96.107,573.707,570.418,0.0
55284.0,STARLINK-5337,PAYLOAD,2024-03-05 11:41:16,14.98315358,0.0002414,69.9996,95.4711,259.0025,101.0862,-6.9587e-05,-9.23e-06,0.0,0 STARLINK-5337,1 55284U 23010R   24065.48699710 -.00000923  00000-0 -69587-4 0  9996,2 55284  69.9996  95.4711 0002414 259.0025 101.0862 14.98315358 62806,6950.238,96.108,573.781,570.425,0.0
55284.0,STARLINK-5337,PAYLOAD,2024-03-06 03:42:36,14.98329256,0.0002963,69.9987,93.7881,272.4012,87.6808,-2.279e-05,-3.65e-06,0.0,0 STARLINK-5337,1 55284U 23010R   24066.15458986 -.00000365  00000-0 -22790-4 0  9994,2 55284  69.9987  93.7881 0002963 272.4012  87.6808 14.98329256 62608,6950.195,96.107,574.12,570.001,0.0
55284.0,STARLINK-5337,PAYLOAD,2024-03-06 11:43:16,14.98331061,0.0002896,69.9988,92.9464,271.7108,88.372,-2.355e-05,-3.74e-06,0.0,0 STARLINK-5337,1 55284U 23010R   24066.48838909 -.00000374  00000-0 -23550-4 0  9992,2 55284  69.9988  92.9464 0002896 271.7108  88.3720 14.98331061 62956,6950.19,96.107,574.067,570.042,0.0
55284.0,STARLINK-5337,PAYLOAD,2024-03-07 03:44:37,14.98328201,0.0003031,69.9986,91.2634,274.5326,85.5487,0.00020864,2.397e-05,0.0,0 STARLINK-5337,1 55284U 23010R   24067.15598482  .00002397  00000-0  20864-3 0  9995,2 55284  69.9986  91.2634 0003031 274.5326  85.5487 14.98328201 62759,6950.198,96.107,574.17,569.957,0.0
55284.0,STARLINK-5337,PAYLOAD,2024-03-07 11:45:17,14.9833307,0.0003055,69.9986,90.4219,274.8934,85.1876,0.00022788,2.627e-05,0.0,0 STARLINK-5337,1 55284U 23010R   24067.48978230  .00002627  00000-0  22788-3 0  9997,2 55284  69.9986  90.4219 0003055 274.8934  85.1876 14.98333070 63101,6950.183,96.107,574.172,569.925,0.0
55284.0,STARLINK-5337,PAYLOAD,2024-03-08 03:46:38,14.98332859,0.0002872,69.999,88.7391,274.9034,85.1797,8.4037e-05,9.1e-06,0.0,0 STARLINK-5337,1 55284U 23010R   24068.15738585  .00000910  00000-0  84037-4 0  9998,2 55284  69.9990  88.7391 0002872 274.9034  85.1797 14.98332859 62908,6950.184,96.107,574.045,570.053,0.0
55284.0,STARLINK-5337,PAYLOAD,2024-03-08 11:47:18,14.98332127,0.0002873,69.999,87.8975,274.6882,85.3949,6.8817e-05,7.28e-06,0.0,0 STARLINK-5337,1 55284U 23010R   24068.49118597  .00000728  00000-0  68817-4 0  9995,2 55284  69.9990  87.8975 0002873 274.6882  85.3949 14.98332127 63253,6950.186,96.107,574.048,570.055,0.0
55284.0,STARLINK-5337,PAYLOAD,2024-03-08 18:11:50,14.98330903,0.0002784,69.9993,87.224,269.5534,90.5306,4.9245e-05,4.95e-06,0.0,0 STARLINK-5337,1 55284U 23010R   24068.75822673  .00000495  00000-0  49245-4 0  9996,2 55284  69.9993  87.2240 0002784 269.5534  90.5306 14.98330903 63292,6950.19,96.107,573.99,570.12,0.0
